STARLINK-34949          
1 65175U 25175B   26185.37525756  .00004597  00000+0  32221-3 0  9993
2 65175  97.2849  55.9644 0002103  81.4353 278.7113 15.05662893 50209
STARLINK-34707          
1 65176U 25175C   26185.63832016  .00008144  00000+0  56734-3 0  9990
2 65176  97.2840  56.2175 0002883  86.2503 273.9054 15.05673190 50235
STARLINK-34967          
1 65177U 25175D   26185.36972065  .00004945  00000+0  34623-3 0  9998
2 65177  97.2847  55.9716 0002666  87.6228 272.5305 15.05664708 50192
STARLINK-34929          
1 65178U 25175E   26185.36695286  .00005480  00000+0  38325-3 0  9994
2 65178  97.2841  55.9751 0002697  88.1424 272.0112 15.05664122 50195
STARLINK-34932          
1 65179U 25175F   26185.36141295  .00005535  00000+0  38699-3 0  9996
2 65179  97.2845  55.9823 0002534  89.4909 270.6609 15.05668988 50191
STARLINK-34862          
1 65180U 25175G   26185.89031763 -.00000299  00000+0 -16779-4 0  9994
2 65180  97.2850  56.4888 0002550  77.0533 283.0979 15.05680094 50279
STARLINK-34942          
1 65181U 25175H   26185.89584706  .00005040  00000+0  35278-3 0  9996
2 65181  97.2848  56.4808 0002422  89.7111 270.4394 15.05667445 50242
STARLINK-34944          
1 65182U 25175J   26185.88755074  .00009548  00000+0  66417-3 0  9990
2 65182  97.2848  56.4934 0002579  91.7435 268.4088 15.05680846 50278
STARLINK-34939          
1 65183U 25175K   26185.88477294  .00005382  00000+0  37647-3 0  9991
2 65183  97.2845  56.4966 0002071  88.9922 271.1543 15.05666533 50248
STARLINK-34947          
1 65184U 25175L   26185.88200369  .00007224  00000+0  50375-3 0  9999
2 65184  97.2844  56.5009 0002159  88.4333 271.7142 15.05672508 50278
STARLINK-34945          
1 65185U 25175M   26184.88236427  .00005137  00000+0  35952-3 0  9998
2 65185  97.2845  55.5632 0002609  82.1925 277.9599 15.05664097 50121
STARLINK-34965          
1 65186U 25175N   26185.14266040  .00007121  00000+0  49675-3 0  9995
2 65186  97.2851  55.8219 0002448  76.1535 283.9965 15.05666405 50167
STARLINK-34915          
1 65187U 25175P   26185.87646650  .00006077  00000+0  42446-3 0  9993
2 65187  97.2846  56.5085 0002555  81.3803 278.7714 15.05670140 50273
STARLINK-34972          
1 65188U 25175Q   26185.07343165  .00006030  00000+0  42131-3 0  9991
2 65188  97.2847  55.7628 0002190  88.4275 271.7203 15.05666509 50129
STARLINK-34866          
1 65189U 25175R   26185.40295472  .00005120  00000+0  35833-3 0  9996
2 65189  97.2859  56.0805 0002011  84.2115 275.9342 15.05665980 50204
STARLINK-34917          
1 65190U 25175S   26185.91670139  .00022484  00000+0  15576-2 0  9994
2 65190  97.2855  56.5723 0001553  87.9903 190.0832 15.05642400  5732
STARLINK-34948          
1 65191U 25175T   26185.59677878  .00008200  00000+0  57112-3 0  9999
2 65191  97.2873  56.2714 0002804  84.7864 275.3684 15.05678412 50230
STARLINK-34955          
1 65192U 25175U   26185.59402211  .00007799  00000+0  54348-3 0  9997
2 65192  97.2860  56.2814 0002449  87.6613 272.4895 15.05675864 50204
STARLINK-34950          
1 65193U 25175V   26185.39187907  .00005336  00000+0  37329-3 0  9993
2 65193  97.2865  56.0975 0001730  86.3645 273.7781 15.05666195 50170
STARLINK-34926          
1 65194U 25175W   26185.38080176  .00003002  00000+0  21179-3 0  9997
2 65194  97.2832  56.1116 0002209  89.3987 270.7494 15.05665207 50178
STARLINK-34928          
1 65195U 25175X   26185.38357431  .00005029  00000+0  35206-3 0  9996
2 65195  97.2855  56.1089 0002018  83.2492 276.8965 15.05664575 50206
STARLINK-34927          
1 65196U 25175Y   26185.38911208  .00005790  00000+0  40471-3 0  9990
2 65196  97.2858  56.1016 0002064  88.9577 271.1887 15.05665795 50203
STARLINK-34952          
1 65197U 25175Z   26185.38634282  .00005831  00000+0  40749-3 0  9999
2 65197  97.2857  56.1051 0001992  77.9847 282.1604 15.05666250 50205
STARLINK-34981          
1 65198U 25176A   26185.82308094  .00060164  00000+0  20216-2 0  9995
2 65198  53.1602 331.5203 0000830  77.0856 283.0237 15.30287102 51010
STARLINK-34821          
1 65199U 25176B   26185.69035836  .00061658  00000+0  18184-2 0  9992
2 65199  53.1595 327.1613 0000847  62.8052 297.3037 15.34445721 50995
STARLINK-34865          
1 65200U 25176C   26185.80601412  .00086218  00000+0  25299-2 0  9991
2 65200  53.1584 327.1737 0001287  90.1982 269.9168 15.34448178 51077
STARLINK-34843          
1 65201U 25176D   26185.77021812  .00067300  00000+0  19812-2 0  9993
2 65201  53.1612 326.9418 0000792 106.0078 254.1012 15.34463258 51076
STARLINK-34905          
1 65202U 25176E   26185.38152386  .00042934  00000+0  12737-2 0  9997
2 65202  53.1609 328.7856 0001903  78.2599 281.8617 15.34421305 51011
STARLINK-34914          
1 65203U 25176F   26185.76811595  .00066655  00000+0  19623-2 0  9991
2 65203  53.1605 326.9316 0001213  77.0807 283.0332 15.34466191 51078
STARLINK-34787          
1 65204U 25176G   26185.68825576  .00059562  00000+0  17566-2 0  9990
2 65204  53.1617 327.1449 0001117  85.2435 274.8695 15.34460837 51063
