OBJECT_NAME,OBJECT_ID,EPOCH,MEAN_MOTION,ECCENTRICITY,INCLINATION,RA_OF_ASC_NODE,ARG_OF_PERICENTER,MEAN_ANOMALY,EPHEMERIS_TYPE,CLASSIFICATION_TYPE,NORAD_CAT_ID,ELEMENT_SET_NO,REV_AT_EPOCH,BSTAR,MEAN_MOTION_DOT,MEAN_MOTION_DDOT
STARLINK-34949,2025-175B,2026-07-04T09:00:22.253184,15.05662893,.00021034,97.2849,55.9644,81.4353,278.7113,0,U,65175,999,5020,.32221118E-3,.4597E-4,0
STARLINK-34707,2025-175C,2026-07-04T15:19:10.861824,15.05673190,.0002883,97.2840,56.2175,86.2503,273.9054,0,U,65176,999,5023,.56734042E-3,.8144E-4,0
STARLINK-34967,2025-175D,2026-07-04T08:52:23.864160,15.05664708,.00026668,97.2847,55.9716,87.6228,272.5305,0,U,65177,999,5019,.3462291E-3,.4945E-4,0
STARLINK-34929,2025-175E,2026-07-04T08:48:24.727104,15.05664122,.00026972,97.2841,55.9751,88.1424,272.0112,0,U,65178,999,5019,.38325357E-3,.548E-4,0
STARLINK-34932,2025-175F,2026-07-04T08:40:26.078880,15.05668988,.00025344,97.2845,55.9823,89.4909,270.6609,0,U,65179,999,5019,.3869903E-3,.5535E-4,0
STARLINK-34862,2025-175G,2026-07-04T21:22:03.443232,15.05680094,.00025501,97.2850,56.4888,77.0533,283.0979,0,U,65180,999,5027,-.16778524E-4,-.299E-5,0
STARLINK-34942,2025-175H,2026-07-04T21:30:01.185984,15.05667445,.00024223,97.2848,56.4808,89.7111,270.4394,0,U,65181,999,5024,.35277906E-3,.504E-4,0
STARLINK-34944,2025-175J,2026-07-04T21:18:04.383936,15.05680846,.00025795,97.2848,56.4934,91.7435,268.4088,0,U,65182,999,5027,.66416922E-3,.9548E-4,0
STARLINK-34939,2025-175K,2026-07-04T21:14:04.382016,15.05666533,.00020716,97.2845,56.4966,88.9922,271.1543,0,U,65183,999,5024,.37647112E-3,.5382E-4,0
STARLINK-34947,2025-175L,2026-07-04T21:10:05.118816,15.05672508,.00021593,97.2844,56.5009,88.4333,271.7142,0,U,65184,999,5027,.50374791E-3,.7224E-4,0
STARLINK-34945,2025-175M,2026-07-03T21:10:36.272928,15.05664097,.00026096,97.2845,55.5632,82.1925,277.9599,0,U,65185,999,5012,.35951626E-3,.5137E-4,0
STARLINK-34965,2025-175N,2026-07-04T03:25:25.858560,15.05666405,.00024487,97.2851,55.8219,76.1535,283.9965,0,U,65186,999,5016,.49675354E-3,.7121E-4,0
STARLINK-34915,2025-175P,2026-07-04T21:02:06.705600,15.05670140,.00025559,97.2846,56.5085,81.3803,278.7714,0,U,65187,999,5027,.4244605E-3,.6077E-4,0
STARLINK-34972,2025-175Q,2026-07-04T01:45:44.494560,15.05666509,.00021907,97.2847,55.7628,88.4275,271.7203,0,U,65188,999,5012,.42131376E-3,.603E-4,0
STARLINK-34866,2025-175R,2026-07-04T09:40:15.287808,15.05665980,.00020117,97.2859,56.0805,84.2115,275.9342,0,U,65189,999,5020,.35832586E-3,.512E-4,0
STARLINK-34917,2025-175S,2026-07-04T22:00:03.000096,15.05642400,.00015532,97.2855,56.5723,87.9903,190.0832,0,U,65190,999,573,.15576463E-2,.22484E-3,0
STARLINK-34948,2025-175T,2026-07-04T14:19:21.686592,15.05678412,.00028047,97.2873,56.2714,84.7864,275.3684,0,U,65191,999,5023,.57111889E-3,.82E-4,0
STARLINK-34955,2025-175U,2026-07-04T14:15:23.510304,15.05675864,.00024498,97.2860,56.2814,87.6613,272.4895,0,U,65192,999,5020,.54348258E-3,.7799E-4,0
STARLINK-34950,2025-175V,2026-07-04T09:24:18.351648,15.05666195,.00017306,97.2865,56.0975,86.3645,273.7781,0,U,65193,999,5017,.37328763E-3,.5336E-4,0
STARLINK-34926,2025-175W,2026-07-04T09:08:21.272064,15.05665207,.0002209,97.2832,56.1116,89.3987,270.7494,0,U,65194,999,5017,.21178517E-3,.3002E-4,0
STARLINK-34928,2025-175X,2026-07-04T09:12:20.820384,15.05664575,.00020187,97.2855,56.1089,83.2492,276.8965,0,U,65195,999,5020,.35206084E-3,.5029E-4,0
STARLINK-34927,2025-175Y,2026-07-04T09:20:19.283712,15.05665795,.00020643,97.2858,56.1016,88.9577,271.1887,0,U,65196,999,5020,.40470528E-3,.579E-4,0
STARLINK-34952,2025-175Z,2026-07-04T09:16:20.019648,15.05666250,.0001992,97.2857,56.1051,77.9847,282.1604,0,U,65197,999,5020,.40749498E-3,.5831E-4,0
STARLINK-34981,2025-176A,2026-07-04T19:45:14.193216,15.30287102,.00008308,53.1602,331.5203,77.0856,283.0237,0,U,65198,999,5101,.20216437E-2,.60164E-3,0
STARLINK-34821,2025-176B,2026-07-04T16:34:06.962304,15.34445721,.00008478,53.1595,327.1613,62.8052,297.3037,0,U,65199,999,5099,.18184301E-2,.61658E-3,0
STARLINK-34865,2025-176C,2026-07-04T19:20:39.619968,15.34448178,.00012871,53.1584,327.1737,90.1982,269.9168,0,U,65200,999,5107,.25298531E-2,.86218E-3,0
STARLINK-34843,2025-176D,2026-07-04T18:29:06.845568,15.34463258,.00007929,53.1612,326.9418,106.0078,254.1012,0,U,65201,999,5107,.19812261E-2,.673E-3,0
STARLINK-34905,2025-176E,2026-07-04T09:09:23.661504,15.34421305,.00019035,53.1609,328.7856,78.2599,281.8617,0,U,65202,999,5101,.12736839E-2,.42934E-3,0
STARLINK-34914,2025-176F,2026-07-04T18:26:05.218080,15.34466191,.0001213,53.1605,326.9316,77.0807,283.0332,0,U,65203,999,5107,.19623225E-2,.66655E-3,0
STARLINK-34787,2025-176G,2026-07-04T16:31:05.297664,15.34460837,.00011171,53.1617,327.1449,85.2435,274.8695,0,U,65204,999,5106,.17566254E-2,.59562E-3,0
